[
    {
        "Altitude(m)": 555737.2448686252,
        "Argument of Periapsis(deg)": 0.033114955553567506,
        "Eccentricity": 0.0,
        "Inclination(deg)": 53.0,
        "Latitude(deg)": -8.489141214932879,
        "Longitude(deg)": 17.434713337608994,
        "Mean Anomaly(deg)": -169.54193566211202,
        "RAAN(deg)": 294.9507168426401,
        "Satellite Name": "Starlink Shell 1 1306",
        "Satellite Number": 1306,
        "Semi-Major Axis(m)": 6931778.249405717,
        "Time(s)": 950
    },
    {
        "Altitude(m)": 555848.8508903128,
        "Argument of Periapsis(deg)": 0.03346353403307874,
        "Eccentricity": 0.0,
        "Inclination(deg)": 53.0,
        "Latitude(deg)": -8.989412357570966,
        "Longitude(deg)": 17.77876908392653,
        "Mean Anomaly(deg)": -168.9151044585554,
        "RAAN(deg)": 294.95019807256267,
        "Satellite Name": "Starlink Shell 1 1306",
        "Satellite Number": 1306,
        "Semi-Major Axis(m)": 6931778.249405717,
        "Time(s)": 960
    },
    {
        "Altitude(m)": 555962.8974565947,
        "Argument of Periapsis(deg)": 0.03381211251258998,
        "Eccentricity": 0.0,
        "Inclination(deg)": 53.0,
        "Latitude(deg)": -9.489253825062773,
        "Longitude(deg)": 18.12387272578957,
        "Mean Anomaly(deg)": -168.28827325499861,
        "RAAN(deg)": 294.94967930248515,
        "Satellite Name": "Starlink Shell 1 1306",
        "Satellite Number": 1306,
        "Semi-Major Axis(m)": 6931778.249405717,
        "Time(s)": 970
    },
    {
        "Altitude(m)": 556079.3525650288,
        "Argument of Periapsis(deg)": 0.034160690992101214,
        "Eccentricity": 0.0,
        "Inclination(deg)": 53.0,
        "Latitude(deg)": -9.988640769989418,
        "Longitude(deg)": 18.470085973421146,
        "Mean Anomaly(deg)": -167.66144205144195,
        "RAAN(deg)": 294.9491605324077,
        "Satellite Name": "Starlink Shell 1 1306",
        "Satellite Number": 1306,
        "Semi-Major Axis(m)": 6931778.249405717,
        "Time(s)": 980
    },
    {
        "Altitude(m)": 556198.1829998353,
        "Argument of Periapsis(deg)": 0.034509269471612446,
        "Eccentricity": 0.0,
        "Inclination(deg)": 53.0,
        "Latitude(deg)": -10.4875481159149,
        "Longitude(deg)": 18.81747151870468,
        "Mean Anomaly(deg)": -167.03461084788523,
        "RAAN(deg)": 294.9486417623302,
        "Satellite Name": "Starlink Shell 1 1306",
        "Satellite Number": 1306,
        "Semi-Major Axis(m)": 6931778.249405717,
        "Time(s)": 990
    }
]